[{"OBJECT_NAME":"TECHNOSAT","OBJECT_ID":"2017-042E","EPOCH":"2026-03-09T21:27:07.546176","MEAN_MOTION":15.04288119,"ECCENTRICITY":0.00196291,"INCLINATION":97.4156,"RA_OF_ASC_NODE":230.4429,"ARG_OF_PERICENTER":75.0719,"MEAN_ANOMALY":285.2679,"EPHEMERIS_TYPE":0,"CLASSIFICATION_TYPE":"U","NORAD_CAT_ID":42829,"ELEMENT_SET_NO":999,"REV_AT_EPOCH":47177,"BSTAR":0.00032015047,"MEAN_MOTION_DOT":4.417e-5,"MEAN_MOTION_DDOT":0},{"OBJECT_NAME":"STARLINK-3993","OBJECT_ID":"2022-053AN","EPOCH":"2026-03-09T11:55:47.800128","MEAN_MOTION":15.08831474,"ECCENTRICITY":0.00012519,"INCLINATION":53.2166,"RA_OF_ASC_NODE":144.7144,"ARG_OF_PERICENTER":93.3879,"MEAN_ANOMALY":266.7257,"EPHEMERIS_TYPE":0,"CLASSIFICATION_TYPE":"U","NORAD_CAT_ID":52692,"ELEMENT_SET_NO":999,"REV_AT_EPOCH":21112,"BSTAR":-7.0282457e-5,"MEAN_MOTION_DOT":-1.406e-5,"MEAN_MOTION_DDOT":0}]
